NUSAT-1 (FRESCO)        
1 41557U 16033B   22163.42056927  .00008799  00000+0  26459-3 0  9995
2 41557  97.3876 261.1085 0011418  43.7078  20.5579 15.34565177336612
BEESAT-4                
1 41619U 16040W   22163.40971898  .00011157  00000+0  37455-3 0  9993
2 41619  97.2174 214.1737 0011320 130.5285 229.6944 15.30965234319950
CAS-2T & KS-1Q          
1 41847U 16066G   22162.77833366  .00000500  00000+0  85861-4 0  9995
2 41847  98.5511 227.4553 0363013 226.7321 130.3048 14.38572802293533
NAYIF-1 (EO-88)         
1 42017U 17008BX  22162.76088710  .00012670  00000+0  38194-3 0  9993
2 42017  97.2696 228.9574 0003530 251.5288 108.5572 15.34439087296205
ZHUHAI-1 02 (CAS-4B)    
1 42759U 17034B   22163.42040875  .00002614  00000+0  16292-3 0  9991
2 42759  43.0195   0.4442 0010209 261.6764 168.3518 15.11862354275595
ZHUHAI-1 01 (CAS-4A)    
1 42761U 17034D   22163.45797465  .00002746  00000+0  17003-3 0  9998
2 42761  43.0195 359.0279 0010640 263.5524 174.7034 15.11955372275602
MAX VALIER SAT          
1 42778U 17036P   22162.88431101  .00006426  00000+0  24554-3 0  9994
2 42778  97.2056 204.1766 0010143 357.1362   2.9817 15.26902580276056
RADFXSAT (FOX-1B)       
1 43017U 17073E   22163.17054078  .00001781  00000+0  13874-3 0  9991
2 43017  97.6761  57.5804 0248074 204.8507 154.0595 14.81361559246333
FOX-1D (AO-92)          
1 43137U 18004AC  22162.86107263  .00006999  00000+0  24882-3 0  9996
2 43137  97.3691 238.0675 0008032  34.3583 325.8175 15.29282002245491
DIWATA-2B               
1 43678U 18084H   22163.62131982  .00000668  00000+0  71420-4 0  9992
2 43678  97.9697 296.8295 0008739 307.4228  52.6152 14.92164034197137
ES'HAIL 2               
1 43700U 18090A   22163.17827347  .00000159  00000+0  00000+0 0  9998
2 43700   0.0135  44.9640 0001328  45.2441 260.2541  1.00272279 13224
FOX-1CLIFF (AO-95)      
1 43770U 18099N   22163.17401631  .00001419  00000+0  13008-3 0  9994
2 43770  97.6206 229.6611 0012834 295.3138  64.6753 14.96406328192229
ITASAT 1                
1 43786U 18099AE  22163.16781032  .00000935  00000+0  87115-4 0  9999
2 43786  97.6235 230.5708 0013455 287.8256  72.1497 14.96558535192264
JY1SAT (JO-97)          
1 43803U 18099AX  22163.12050335  .00001966  00000+0  17537-3 0  9995
2 43803  97.6193 230.2781 0013195 285.7378  74.2389 14.97042555192273
UWE-4                   
1 43880U 18111E   22163.52485014  .00001770  00000+0  15416-3 0  9992
2 43880  97.6685  69.9223 0011736 343.4094  16.6743 14.98123742186960
NEXUS (FO-99)           
1 43937U 19003F   22162.80841129  .00009216  00000+0  31247-3 0  9992
2 43937  97.1307 196.3794 0021462 168.8490 191.3232 15.30530483189118
PSAT2 (NO-104)          
1 44354U 19036R   22163.47379387  .00059327 -57381-5  53499-3 0  9990
2 44354  28.5255 212.8731 0232261 274.3752  83.0345 15.39052691163902
JAISAT-1                
1 44419U 19038F   22162.89712058  .00005252  00000+0  26622-3 0  9990
2 44419  97.6348 132.9758 0020520 145.6999 214.5563 15.17223529162213
DUCHIFAT-3              
1 44854U 19089C   22163.27648803  .00002179  00000+0  17339-3 0  9998
2 44854  36.9639 131.0345 0007708 189.1479 306.0283 15.01036897137150
CAS-6 (TO-108)          
1 44881U 19093C   22163.51380126  .00000351  00000+0  51142-4 0  9992
2 44881  97.8920 242.7928 0014496 197.3658 162.7066 14.81720959134045
RS-44 & BREEZE-KM R/B   
1 44909U 19096E   22162.87448423  .00000017  00000+0  29385-4 0  9992
2 44909  82.5222 233.9807 0216764 333.0645  25.9333 12.79713300114791
ORBITAL FACTORY 2 (OF-2)
1 45113U 19071C   22163.00048585  .00021002  00000+0  44305-3 0  9999
2 45113  51.6383  86.1907 0010347 143.8029 216.3660 15.45122926132530
HUSKYSAT-1 (HO-107)     
1 45119U 19071J   22163.19720704  .00017681  00000+0  38585-3 0  9996
2 45119  51.6386  85.2297 0010181 141.8057 218.3652 15.44247344132552
BY70-2                  
1 45857U 20042B   22163.49013522  .00004467  00000+0  60046-3 0  9996
2 45857  97.9538 240.3756 0012340 130.3847 229.8474 14.79726808104727
SALSAT                  
1 46495U 20068K   22162.84245759  .00001924  00000+0  14170-3 0  9992
2 46495  97.7303 104.1405 0015069 299.5920  60.3803 15.04490406 93343
BY70-3                  
1 46839U 20079N   22163.50251339  .00015964  00000+0  37913-3 0  9990
2 46839  97.1977 235.6610 0004723   6.0024  49.4805 15.41754718 89485
RADFXSAT-2 (AO-109)     
1 47311U 21002C   22162.89641190  .00005789  00000+0  23901-3 0  9998
2 47311  60.6864  23.1651 0015066 329.6865  30.3351 15.25199586 77610
UVSQ-SAT                
1 47438U 21006AB  22162.66837289  .00004172  00000+0  22278-3 0  9994
2 47438  97.4376 221.7972 0010237 297.7941  62.2253 15.15622581 76409
DIY-1 (ARDUIQUBE)       
1 47963U 21022AH  22162.65997398  .00011937  00000+0  67129-3 0  9993
2 47963  97.5341  64.0873 0018242 145.3344 214.9080 15.13281768 66074
XW-3 (CAS-9)            
1 50466U 21131B   22163.51180443  .00000080  00000+0  40891-4 0  9992
2 50466  98.5804 240.7678 0005370 151.3317 208.8167 14.38498093 24206
TEVEL-3                 
1 50988U 22002E   22163.48273441  .00004783  00000+0  26424-3 0  9995
2 50988  97.4814 230.5478 0011209  85.0534  39.7776 15.14329445 22665
TEVEL-8                 
1 50989U 22002F   22163.55054100  .00004743  00000+0  26243-3 0  9998
2 50989  97.4825 230.6311 0011265  83.4511  23.8705 15.14278463 22674
TEVEL-5                 
1 50998U 22002Q   22163.50502021  .00005188  00000+0  28239-3 0  9994
2 50998  97.4807 230.6551 0012803  80.9340  43.5747 15.14803952 22673
TEVEL-6                 
1 50999U 22002R   22163.50469903  .00005206  00000+0  28333-3 0  9992
2 50999  97.4795 230.6528 0012811  80.6169  43.9252 15.14808212 22678
TEVEL-1                 
1 51013U 22002AF  22163.54771589  .00004748  00000+0  26251-3 0  9997
2 51013  97.4807 230.5966 0011037  83.9394  23.3453 15.14306304 22670
TEVEL-7                 
1 51062U 22002CG  22163.48711248  .00004708  00000+0  26058-3 0  9991
2 51062  97.4816 230.5580 0011211  83.2375  31.6490 15.14267558 22661
TEVEL-4                 
1 51063U 22002CH  22163.55225192  .00004745  00000+0  26267-3 0  9991
2 51063  97.4818 230.6199 0011156  83.2726  24.0828 15.14261325 22677
TEVEL-2                 
1 51069U 22002CP  22163.48367853  .00004781  00000+0  26420-3 0  9991
2 51069  97.4804 230.5382 0011162  84.9971  39.6678 15.14321677 22669
